KUIPER-00153            
1 65773U 25217M   26064.63607874  .00018588  00000+0  10485-2 0  9993
2 65773  51.8805  46.4134 0010302 311.4382  48.5709 15.13157862 24487
KUIPER-00155            
1 65774U 25217N   26064.59668518  .00021604  00000+0  91638-3 0  9994
2 65774  51.8784  30.8773 0005552 316.7439  43.3105 15.23035957 24699
KUIPER-00156            
1 65775U 25217P   26064.34639964 -.00000185  00000+0  47177-5 0  9994
2 65775  51.9032  44.8293 0000826  84.7028 275.4028 14.79936911 24472
KUIPER-00158            
1 65776U 25217Q   26064.41706663  .00007147  00000+0  95287-3 0  9991
2 65776  51.8967  64.3735 0001082  44.8091 315.2959 14.80491942 24219
KUIPER-00163            
1 65777U 25217R   26064.58335648  .00076511  00000+0  68514-2 0  9994
2 65777  51.8969  65.4949 0002428  61.1685  94.7675 14.95109034  5551
KUIPER-00165            
1 65778U 25217S   26064.40314981 -.00008194  00000+0 -10470-2 0  9995
2 65778  51.9010  54.5512 0000821  93.2105 266.8951 14.79933805 24343
KUIPER-00166            
1 65779U 25217T   26064.31536731  .00006314  00000+0  85529-3 0  9993
2 65779  51.9042  42.4609 0000679  95.3066 264.7974 14.79992933 24509
KUIPER-00167            
1 65780U 25217U   26064.25735030  .00002399  00000+0  34318-3 0  9990
2 65780  51.8969  65.1667 0000869  46.7827 313.3207 14.79975308 24181
KUIPER-00168            
1 65781U 25217V   26064.34372201  .00004271  00000+0  58916-3 0  9999
2 65781  51.9004  47.3174 0001061  79.4696 280.6386 14.79914334 24445
KUIPER-00169            
1 65782U 25217W   26064.33900091  .00006361  00000+0  86511-3 0  9997
2 65782  51.9014  52.3462 0000749  90.7064 269.3984 14.79807627 24376
KUIPER-00170            
1 65783U 25217X   26064.26502224 -.00000443  00000+0 -29108-4 0  9993
2 65783  51.8998  57.6491 0000715  92.3106 267.7938 14.79921425 24290
KUIPER-00172            
1 65785U 25217Z   26064.58335648 -.01703148  00000+0 -20715+0 0  9997
2 65785  51.8994  37.0389 0002636 285.5851 223.0139 14.86909864  3109
KUIPER-00173            
1 65786U 25217AA  26064.57351096 -.00100902  00000+0 -12773-1 0  9997
2 65786  51.9036  50.6054 0001435   1.3783 358.7184 14.81950325 24418
KUIPER-00174            
1 65787U 25217AB  26064.30996449  .00005247  00000+0  71668-3 0  9990
2 65787  51.9040  47.4908 0001009  80.0018 280.1058 14.79933970 24432
KUIPER-00176            
1 65788U 25217AC  26064.42866109 -.00003297  00000+0 -40366-3 0  9999
2 65788  51.9017  61.9388 0000675  86.3146 273.7893 14.79932819 24244
KUIPER-00101            
1 65947U 25228A   26064.30587849  .00001277  00000+0  19647-3 0  9998
2 65947  51.9032  19.9631 0000568 116.5320 243.5700 14.79926940 22588
KUIPER-00113            
1 65948U 25228B   26064.27743166  .00007139  00000+0  96325-3 0  9992
2 65948  51.9001  15.1045 0000859 104.3033 255.8025 14.79988297 22647
